H1 CPF 01  gfz 2021 03 07 01  5661 terrasarx 
H2 0702601  6201 31698    2021 03 07 00 59 42 2021 03 12 00 00 42   120 1 1  0 0 0
H9
10 0 59283  75582.000000  0   -3927226.596   2992309.533   4794018.612
10 0 59283  75702.000000  0   -4259498.906   3513009.379   4110043.832
10 0 59283  75822.000000  0   -4508691.561   3977387.993   3353709.450
10 0 59283  75942.000000  0   -4671498.940   4375826.850   2538315.739
10 0 59283  76062.000000  0   -4746293.375   4699823.565   1678215.877
10 0 59283  76182.000000  0   -4733136.098   4942176.029    788558.594
10 0 59283  76302.000000  0   -4633754.437   5097141.233   -114985.077
10 0 59283  76422.000000  0   -4451486.150   5160567.375  -1016505.829
10 0 59283  76542.000000  0   -4191189.111   5129993.919  -1900147.554
10 0 59283  76662.000000  0   -3859119.109   5004715.409  -2750393.917
10 0 59283  76782.000000  0   -3462782.809   4785810.614  -3552347.585
10 0 59283  76902.000000  0   -3010766.292   4476133.761  -4291993.641
10 0 59283  77022.000000  0   -2512546.540   4080271.269  -4956441.849
10 0 59283  77142.000000  0   -1978290.913   3604466.749  -5534144.443
10 0 59283  77262.000000  0   -1418649.052   3056515.866  -6015089.020
10 0 59283  77382.000000  0    -844540.384   2445631.553  -6390962.444
10 0 59283  77502.000000  0    -266942.520   1782284.274  -6655282.637
10 0 59283  77622.000000  0     303314.831   1078021.473  -6803499.276
10 0 59283  77742.000000  0     855747.669    345268.553  -6833064.277
10 0 59283  77862.000000  0    1380406.606   -402886.381  -6743471.504
10 0 59283  77982.000000  0    1868051.632  -1152921.531  -6536262.910
10 0 59283  78102.000000  0    2310310.802  -1891119.176  -6215004.675
10 0 59283  78222.000000  0    2699822.327  -2603810.238  -5785232.671
10 0 59283  78342.000000  0    3030357.595  -3277623.751  -5254368.691
10 0 59283  78462.000000  0    3296923.982  -3899738.842  -4631602.811
10 0 59283  78582.000000  0    3495842.265  -4458129.651  -3927743.210
10 0 59283  78702.000000  0    3624799.493  -4941800.805  -3155039.365
10 0 59283  78822.000000  0    3682877.243  -5341011.112  -2326977.380
10 0 59283  78942.000000  0    3670551.219  -5647478.262  -1458047.411
10 0 59283  79062.000000  0    3589662.877  -5854557.434   -563489.689
10 0 59283  79182.000000  0    3443362.712  -5957390.859    340977.520
10 0 59283  79302.000000  0    3236025.502  -5953022.283   1239440.760
10 0 59283  79422.000000  0    2973141.668  -5840474.861   2116080.274
10 0 59283  79542.000000  0    2661184.722  -5620786.917   2955458.572
10 0 59283  79662.000000  0    2307459.173  -5297007.187   3742799.113
10 0 59283  79782.000000  0    1919934.350  -4874150.748   4464251.283
10 0 59283  79902.000000  0    1507067.345  -4359115.523   5107137.105
10 0 59283  80022.000000  0    1077620.457  -3760562.245   5660174.305
10 0 59283  80142.000000  0     640475.084  -3088759.655   6113672.506
10 0 59283  80262.000000  0     204448.194  -2355400.126   6459696.443
10 0 59283  80382.000000  0    -221884.187  -1573391.123   6692197.702
10 0 59283  80502.000000  0    -630353.962   -756625.939   6807114.832
10 0 59283  80622.000000  0   -1013356.203     80264.663   6802440.983
10 0 59283  80742.000000  0   -1363989.987    922174.849   6678256.584
10 0 59283  80862.000000  0   -1676182.277   1753795.695   6436727.693
10 0 59283  80982.000000  0   -1944793.395   2559892.646   6082070.766
10 0 59283  81102.000000  0   -2165702.353   3325584.931   5620483.465
10 0 59283  81222.000000  0   -2335870.455   4036621.931   5060042.406
10 0 59283  81342.000000  0   -2453383.272   4679653.117   4410568.908
10 0 59283  81462.000000  0   -2517469.004   5242485.800   3683461.882
10 0 59283  81582.000000  0   -2528492.848   5714324.776   2891500.197
10 0 59283  81702.000000  0   -2487926.914   6085987.461   2048617.690
10 0 59283  81822.000000  0   -2398296.850   6350090.467   1169655.436
10 0 59283  81942.000000  0   -2263105.584   6501202.516    270095.029
10 0 59283  82062.000000  0   -2086736.468   6535959.633   -634221.508
10 0 59283  82182.000000  0   -1874338.471   6453140.007  -1527380.136
10 0 59283  82302.000000  0   -1631694.816   6253693.522  -2393686.862
10 0 59283  82422.000000  0   -1365079.120   5940723.584  -3217950.172
10 0 59283  82542.000000  0   -1081104.779   5519429.411  -3985749.039
10 0 59283  82662.000000  0    -786570.986   4997008.499  -4683685.266
10 0 59283  82782.000000  0    -488308.536   4382521.586  -5299612.930
10 0 59283  82902.000000  0    -193028.817   3686725.462  -5822843.096
10 0 59283  83022.000000  0      92820.917   2921875.326  -6244320.682
10 0 59283  83142.000000  0     363192.113   2101501.985  -6556769.577
10 0 59283  83262.000000  0     612556.978   1240170.993  -6754806.663
10 0 59283  83382.000000  0     836016.890    353225.617  -6835025.736
10 0 59283  83502.000000  0    1029394.943   -543482.287  -6796049.532
10 0 59283  83622.000000  0    1189311.323  -1433869.955  -6638549.694
10 0 59283  83742.000000  0    1313240.730  -2301904.051  -6365235.190
10 0 59283  83862.000000  0    1399552.074  -3131881.748  -5980812.029
10 0 59283  83982.000000  0    1447529.104  -3908711.777  -5491912.520
10 0 59283  84102.000000  0    1457370.890  -4618189.518  -4906990.539
10 0 59283  84222.000000  0    1430173.756  -5247258.475  -4236185.959
10 0 59283  84342.000000  0    1367893.378  -5784257.508  -3491160.354
10 0 59283  84462.000000  0    1273287.130  -6219146.936  -2684902.140
10 0 59283  84582.000000  0    1149839.177  -6543707.645  -1831505.288
10 0 59283  84702.000000  0    1001669.055  -6751708.827   -945924.161
10 0 59283  84822.000000  0     833424.673  -6839038.618    -43708.554
10 0 59283  84942.000000  0     650163.466  -6803793.426    859274.940
10 0 59283  85062.000000  0     457224.428  -6646324.314   1747129.503
10 0 59283  85182.000000  0     260094.126  -6369238.316   2604217.584
10 0 59283  85302.000000  0      64270.141  -5977352.481   3415446.383
10 0 59283  85422.000000  0    -124875.150  -5477602.107   4166539.935
10 0 59283  85542.000000  0    -302226.189  -4878909.706   4844293.204
10 0 59283  85662.000000  0    -463047.902  -4192015.796   5436805.507
10 0 59283  85782.000000  0    -603098.359  -3429276.605   5933687.993
10 0 59283  85902.000000  0    -718728.557  -2604431.591   6326242.167
10 0 59283  86022.000000  0    -806966.969  -1732348.755   6607604.264
10 0 59283  86142.000000  0    -865587.507   -828754.239   6772858.729
10 0 59283  86262.000000  0    -893160.291     90052.755   6819120.212
10 0 59283  86382.000000  0    -889083.888   1007494.438   6745580.965
10 0 59284    102.000000  0    -853597.439   1907013.109   6553524.017
10 0 59284    222.000000  0    -787773.360   2772369.360   6246302.066
10 0 59284    342.000000  0    -693491.147   3587935.433   5829282.854
10 0 59284    462.000000  0    -573392.577   4338979.902   5309760.499
10 0 59284    582.000000  0    -430818.622   5011937.726   4696834.103
10 0 59284    702.000000  0    -269729.642   5594663.613   4001254.255
10 0 59284    822.000000  0     -94609.426   6076658.292   3235237.045
10 0 59284    942.000000  0      89642.635   6449268.612   2412254.994
10 0 59284   1062.000000  0     277831.757   6705856.827   1546795.659
10 0 59284   1182.000000  0     464597.128   6841924.706    654100.547
10 0 59284   1302.000000  0     644546.073   6855197.582   -250109.874
10 0 59284   1422.000000  0     812390.061   6745663.763  -1149921.933
10 0 59284   1542.000000  0     963077.609   6515567.447  -2029517.492
10 0 59284   1662.000000  0    1091921.430   6169357.439  -2873459.028
10 0 59284   1782.000000  0    1194717.496   5713592.494  -3666965.666
10 0 59284   1902.000000  0    1267853.047   5156805.979  -4396174.259
10 0 59284   2022.000000  0    1308400.766   4509333.627  -5048380.071
10 0 59284   2142.000000  0    1314196.962   3783109.724  -5612252.060
10 0 59284   2262.000000  0    1283902.038   2991438.252  -6078021.221
10 0 59284   2382.000000  0    1217042.494   2148742.053  -6437639.395
10 0 59284   2502.000000  0    1114033.723   1270297.686  -6684905.857
10 0 59284   2622.000000  0     976183.917    371960.498  -6815564.639
10 0 59284   2742.000000  0     805678.775   -530117.760  -6827370.026
10 0 59284   2862.000000  0     605547.033  -1419773.620  -6720119.860
10 0 59284   2982.000000  0     379607.895  -2281113.333  -6495657.171
10 0 59284   3102.000000  0     132401.203  -3098789.040  -6157843.650
10 0 59284   3222.000000  0    -130900.344  -3858269.536  -5712501.346
10 0 59284   3342.000000  0    -404593.799  -4546097.208  -5167321.352
10 0 59284   3462.000000  0    -682562.670  -5150129.165  -4531742.762
10 0 59284   3582.000000  0    -958406.588  -5659758.530  -3816800.477
10 0 59284   3702.000000  0   -1225581.049  -6066110.523  -3034942.758
10 0 59284   3822.000000  0   -1477544.128  -6362208.512  -2199821.190
10 0 59284   3942.000000  0   -1707907.342  -6543106.785  -1326055.629
10 0 59284   4062.000000  0   -1910586.602  -6605985.216   -428976.842
10 0 59284   4182.000000  0   -2079949.619  -6550202.111    475647.456
10 0 59284   4302.000000  0   -2210956.220  -6377303.321   1371897.135
10 0 59284   4422.000000  0   -2299287.536  -6090987.137   2243988.705
10 0 59284   4542.000000  0   -2341460.434  -5697025.412   3076562.487
10 0 59284   4662.000000  0   -2334923.856  -5203142.868   3854960.841
10 0 59284   4782.000000  0   -2278135.016  -4618858.549   4565491.104
10 0 59284   4902.000000  0   -2170614.194  -3955294.493   5195668.502
10 0 59284   5022.000000  0   -2012977.209  -3224955.174   5734435.891
10 0 59284   5142.000000  0   -1806943.470  -2441482.627   6172354.183
10 0 59284   5262.000000  0   -1555320.104  -1619395.978   6501761.849
10 0 59284   5382.000000  0   -1261963.825   -773818.667   6716903.570
10 0 59284   5502.000000  0    -931721.625     79802.774   6814024.104
10 0 59284   5622.000000  0    -570351.038    925980.041   6791429.056
99
